[{"OBJECT_NAME":"STARLINK-1470","OBJECT_ID":"2020-038AU","EPOCH":"2026-03-09T14:36:51.476832","MEAN_MOTION":15.2807486,"ECCENTRICITY":0.0002444,"INCLINATION":53.048,"RA_OF_ASC_NODE":174.6971,"ARG_OF_PERICENTER":12.8687,"MEAN_ANOMALY":347.2373,"EPHEMERIS_TYPE":0,"CLASSIFICATION_TYPE":"U","NORAD_CAT_ID":45772,"ELEMENT_SET_NO":999,"REV_AT_EPOCH":31706,"BSTAR":0.0019687,"MEAN_MOTION_DOT":0.00054678,"MEAN_MOTION_DDOT":0},{"OBJECT_NAME":"STARLINK-32615","OBJECT_ID":"2024-216C","EPOCH":"2026-03-09T19:35:17.856960","MEAN_MOTION":15.2755379,"ECCENTRICITY":0.00029463,"INCLINATION":43.0001,"RA_OF_ASC_NODE":255.7206,"ARG_OF_PERICENTER":281.4764,"MEAN_ANOMALY":78.5756,"EPHEMERIS_TYPE":0,"CLASSIFICATION_TYPE":"U","NORAD_CAT_ID":62034,"ELEMENT_SET_NO":999,"REV_AT_EPOCH":7273,"BSTAR":0.00067424079,"MEAN_MOTION_DOT":0.00018324,"MEAN_MOTION_DDOT":0}]
